[{"OBJECT_NAME":"STARLINK-33753","OBJECT_ID":"2025-069L","EPOCH":"2026-03-09T11:34:37.879968","MEAN_MOTION":15.30189612,"ECCENTRICITY":0.00011372,"INCLINATION":53.158,"RA_OF_ASC_NODE":143.3933,"ARG_OF_PERICENTER":91.3474,"MEAN_ANOMALY":268.7657,"EPHEMERIS_TYPE":0,"CLASSIFICATION_TYPE":"U","NORAD_CAT_ID":63443,"ELEMENT_SET_NO":999,"REV_AT_EPOCH":5336,"BSTAR":0.0005365921,"MEAN_MOTION_DOT":0.00015561,"MEAN_MOTION_DDOT":0},{"OBJECT_NAME":"GLOBAL-34","OBJECT_ID":"2026-043A","EPOCH":"2026-03-09T11:23:30.999840","MEAN_MOTION":15.31488019,"ECCENTRICITY":0.00068849,"INCLINATION":42.0215,"RA_OF_ASC_NODE":76.7399,"ARG_OF_PERICENTER":289.2632,"MEAN_ANOMALY":70.746,"EPHEMERIS_TYPE":0,"CLASSIFICATION_TYPE":"U","NORAD_CAT_ID":68098,"ELEMENT_SET_NO":999,"REV_AT_EPOCH":53,"BSTAR":0.00045822046,"MEAN_MOTION_DOT":0.00014018,"MEAN_MOTION_DDOT":0}]
