STARLINK-33753          
1 63443U 25069L   26068.48238287  .00015561  00000+0  53659-3 0  9994
2 63443  53.1580 143.3933 0001137  91.3474 268.7657 15.30189612 53364
GLOBAL-34               
1 68098U 26043A   26068.47466435  .00014018  00000+0  45822-3 0  9994
2 68098  42.0215  76.7399 0006884 289.2632  70.7460 15.31488019   538
